{
  "type": "FeatureCollection",
  "features": [
    {
      "type": "Feature",
      "properties": {
        "norad_id": 25730,
        "name": "FENGYUN 1C",
        "group": "fengyun-1c-debris",
        "lat": -80.60328627747745,
        "lon": 159.69717696862475,
        "alt_km": 819.8896175478812,
        "timestamp": "2025-12-10T14:53:37.363594+00:00",
        "meta_object_name": "FENGYUN 1C",
        "meta_object_id": "1999-025A",
        "meta_epoch": "2025-12-10T03:32:32.668512",
        "meta_mean_motion": 14.26027713,
        "meta_eccentricity": 0.00107711,
        "meta_inclination": 98.8837,
        "meta_ra_of_asc_node": 50.1442,
        "meta_arg_of_pericenter": 75.3014,
        "meta_mean_anomaly": 284.9358,
        "meta_ephemeris_type": 0,
        "meta_classification_type": "U",
        "meta_norad_cat_id": 25730,
        "meta_element_set_no": 999,
        "meta_rev_at_epoch": 37100,
        "meta_bstar": 0.0015155914,
        "meta_mean_motion_dot": 3.576e-05,
        "meta_mean_motion_ddot": 0,
        "tle_line1": "1 25730U 99025A   25344.14760033  .00003576  00000+0  15156-2 0  9994",
        "tle_line2": "2 25730  98.8837  50.1442 0010771  75.3014 284.9358 14.26027713371007"
      },
      "geometry": {
        "type": "Point",
        "coordinates": [
          159.69717696862475,
          -80.60328627747745
        ]
      }
    },
    {
      "type": "Feature",
      "properties": {
        "norad_id": 29733,
        "name": "FENGYUN 1C DEB",
        "group": "fengyun-1c-debris",
        "lat": 55.4795136099819,
        "lon": -125.32944839382324,
        "alt_km": 1196.7743629475117,
        "timestamp": "2025-12-10T14:53:37.363610+00:00",
        "meta_object_name": "FENGYUN 1C DEB",
        "meta_object_id": "1999-025X",
        "meta_epoch": "2025-12-09T10:33:04.070880",
        "meta_mean_motion": 12.96457178,
        "meta_eccentricity": 0.05696658,
        "meta_inclination": 99.2246,
        "meta_ra_of_asc_node": 40.0035,
        "meta_arg_of_pericenter": 209.5667,
        "meta_mean_anomaly": 171.215,
        "meta_ephemeris_type": 0,
        "meta_classification_type": "U",
        "meta_norad_cat_id": 29733,
        "meta_element_set_no": 999,
        "meta_rev_at_epoch": 89077,
        "meta_bstar": 0.0027752223,
        "meta_mean_motion_dot": 1.641e-05,
        "meta_mean_motion_ddot": 0,
        "tle_line1": "1 29733U 99025X   25343.43963045  .00001641  00000+0  27752-2 0  9996",
        "tle_line2": "2 29733  99.2246  40.0035 0569665 209.5667 171.2150 12.96457178890770"
      },
      "geometry": {
        "type": "Point",
        "coordinates": [
          -125.32944839382324,
          55.4795136099819
        ]
      }
    },
    {
      "type": "Feature",
      "properties": {
        "norad_id": 29734,
        "name": "FENGYUN 1C DEB",
        "group": "fengyun-1c-debris",
        "lat": -14.08687205259178,
        "lon": -82.80501949737928,
        "alt_km": 887.9528941440112,
        "timestamp": "2025-12-10T14:53:37.363622+00:00",
        "meta_object_name": "FENGYUN 1C DEB",
        "meta_object_id": "1999-025Y",
        "meta_epoch": "2025-12-10T08:06:56.102112",
        "meta_mean_motion": 12.91277413,
        "meta_eccentricity": 0.06150656,
        "meta_inclination": 99.1694,
        "meta_ra_of_asc_node": 274.6361,
        "meta_arg_of_pericenter": 17.2562,
        "meta_mean_anomaly": 99.8307,
        "meta_ephemeris_type": 0,
        "meta_classification_type": "U",
        "meta_norad_cat_id": 29734,
        "meta_element_set_no": 999,
        "meta_rev_at_epoch": 88517,
        "meta_bstar": 0.0066638702,
        "meta_mean_motion_dot": 4.112e-05,
        "meta_mean_motion_ddot": 0,
        "tle_line1": "1 29734U 99025Y   25344.33814933  .00004112  00000+0  66639-2 0  9991",
        "tle_line2": "2 29734  99.1694 274.6361 0615065  17.2562  99.8307 12.91277413885172"
      },
      "geometry": {
        "type": "Point",
        "coordinates": [
          -82.80501949737928,
          -14.08687205259178
        ]
      }
    },
    {
      "type": "Feature",
      "properties": {
        "norad_id": 29735,
        "name": "FENGYUN 1C DEB",
        "group": "fengyun-1c-debris",
        "lat": 26.400819669995993,
        "lon": -104.78175658171065,
        "alt_km": 1833.9139952800224,
        "timestamp": "2025-12-10T14:53:37.363632+00:00",
        "meta_object_name": "FENGYUN 1C DEB",
        "meta_object_id": "1999-025Z",
        "meta_epoch": "2025-12-10T07:12:02.030400",
        "meta_mean_motion": 12.75041038,
        "meta_eccentricity": 0.06976131,
        "meta_inclination": 99.3911,
        "meta_ra_of_asc_node": 259.6633,
        "meta_arg_of_pericenter": 180.7437,
        "meta_mean_anomaly": 179.2677,
        "meta_ephemeris_type": 0,
        "meta_classification_type": "U",
        "meta_norad_cat_id": 29735,
        "meta_element_set_no": 999,
        "meta_rev_at_epoch": 87384,
        "meta_bstar": 0.0017032625,
        "meta_mean_motion_dot": 9.6e-06,
        "meta_mean_motion_ddot": 0,
        "tle_line1": "1 29735U 99025Z   25344.30002350  .00000960  00000+0  17033-2 0  9992",
        "tle_line2": "2 29735  99.3911 259.6633 0697613 180.7437 179.2677 12.75041038873846"
      },
      "geometry": {
        "type": "Point",
        "coordinates": [
          -104.78175658171065,
          26.400819669995993
        ]
      }
    },
    {
      "type": "Feature",
      "properties": {
        "norad_id": 29736,
        "name": "FENGYUN 1C DEB",
        "group": "fengyun-1c-debris",
        "lat": -58.449468547448824,
        "lon": -179.92457448956537,
        "alt_km": 1469.3623271254974,
        "timestamp": "2025-12-10T14:53:37.363643+00:00",
        "meta_object_name": "FENGYUN 1C DEB",
        "meta_object_id": "1999-025AA",
        "meta_epoch": "2025-12-10T00:52:16.080672",
        "meta_mean_motion": 12.57483402,
        "meta_eccentricity": 0.07256666,
        "meta_inclination": 99.4019,
        "meta_ra_of_asc_node": 163.9497,
        "meta_arg_of_pericenter": 204.4852,
        "meta_mean_anomaly": 323.8055,
        "meta_ephemeris_type": 0,
        "meta_classification_type": "U",
        "meta_norad_cat_id": 29736,
        "meta_element_set_no": 999,
        "meta_rev_at_epoch": 86510,
        "meta_bstar": 0.0031669963,
        "meta_mean_motion_dot": 1.413e-05,
        "meta_mean_motion_ddot": 0,
        "tle_line1": "1 29736U 99025AA  25344.03629723  .00001413  00000+0  31670-2 0  9999",
        "tle_line2": "2 29736  99.4019 163.9497 0725666 204.4852 323.8055 12.57483402865109"
      },
      "geometry": {
        "type": "Point",
        "coordinates": [
          -179.92457448956537,
          -58.449468547448824
        ]
      }
    },
    {
      "type": "Feature",
      "properties": {
        "norad_id": 29737,
        "name": "FENGYUN 1C DEB",
        "group": "fengyun-1c-debris",
        "lat": -35.964400012043654,
        "lon": -52.92650075669536,
        "alt_km": 1946.0930492723573,
        "timestamp": "2025-12-10T14:53:37.363653+00:00",
        "meta_object_name": "FENGYUN 1C DEB",
        "meta_object_id": "1999-025AB",
        "meta_epoch": "2025-12-09T15:23:33.470304",
        "meta_mean_motion": 12.65643748,
        "meta_eccentricity": 0.0694496,
        "meta_inclination": 99.5808,
        "meta_ra_of_asc_node": 299.2169,
        "meta_arg_of_pericenter": 145.2631,
        "meta_mean_anomaly": 38.843,
        "meta_ephemeris_type": 0,
        "meta_classification_type": "U",
        "meta_norad_cat_id": 29737,
        "meta_element_set_no": 999,
        "meta_rev_at_epoch": 86829,
        "meta_bstar": 0.0023227,
        "meta_mean_motion_dot": 1.097e-05,
        "meta_mean_motion_ddot": 0,
        "tle_line1": "1 29737U 99025AB  25343.64135961  .00001097  00000+0  23227-2 0  9999",
        "tle_line2": "2 29737  99.5808 299.2169 0694496 145.2631  38.8430 12.65643748868292"
      },
      "geometry": {
        "type": "Point",
        "coordinates": [
          -52.92650075669536,
          -35.964400012043654
        ]
      }
    },
    {
      "type": "Feature",
      "properties": {
        "norad_id": 29738,
        "name": "FENGYUN 1C DEB",
        "group": "fengyun-1c-debris",
        "lat": 35.45682878961528,
        "lon": 145.14851654836463,
        "alt_km": 1440.634973844376,
        "timestamp": "2025-12-10T14:53:37.363663+00:00",
        "meta_object_name": "FENGYUN 1C DEB",
        "meta_object_id": "1999-025AC",
        "meta_epoch": "2025-12-09T21:34:29.569440",
        "meta_mean_motion": 12.6101795,
        "meta_eccentricity": 0.08643509,
        "meta_inclination": 99.4097,
        "meta_ra_of_asc_node": 151.3401,
        "meta_arg_of_pericenter": 300.6328,
        "meta_mean_anomaly": 51.2281,
        "meta_ephemeris_type": 0,
        "meta_classification_type": "U",
        "meta_norad_cat_id": 29738,
        "meta_element_set_no": 999,
        "meta_rev_at_epoch": 86181,
        "meta_bstar": 0.0030087183,
        "meta_mean_motion_dot": 2.253e-05,
        "meta_mean_motion_ddot": 0,
        "tle_line1": "1 29738U 99025AC  25343.89895335  .00002253  00000+0  30087-2 0  9992",
        "tle_line2": "2 29738  99.4097 151.3401 0864350 300.6328  51.2281 12.61017950861817"
      },
      "geometry": {
        "type": "Point",
        "coordinates": [
          145.14851654836463,
          35.45682878961528
        ]
      }
    }
  ]
}